KUIPER-00079            
1 64826U 25151L   25344.28298116  .00008322  00000+0  11177-2 0  9998
2 64826  51.9004 335.9266 0011499 306.1207  53.8690 14.79957670 23263
KUIPER-00080            
1 64827U 25151M   25344.18137938  .00008679  00000+0  11622-2 0  9992
2 64827  51.9008 336.3756 0005857 320.4087  39.6447 14.80068207 22052
KUIPER-00082            
1 64828U 25151N   25344.16131952 -.00005423  00000+0 -68285-3 0  9995
2 64828  51.9036 323.9818 0006030 349.9327  10.1514 14.79915235 22220
KUIPER-00083            
1 64829U 25151P   25344.15329717  .00006203  00000+0  84186-3 0  9996
2 64829  51.9018 331.5137 0011228 305.7990  54.1928 14.79913436 23309
KUIPER-00084            
1 64830U 25151Q   25344.20990287  .00007049  00000+0  95097-3 0  9992
2 64830  51.9018 341.2479 0011730 279.9829  79.9809 14.79978492 21987
KUIPER-00085            
1 64831U 25151R   25344.26259870 -.00013101  00000+0 -16934-2 0  9995
2 64831  51.9054 323.5471 0007389 321.5073  38.5361 14.79892074 22237
KUIPER-00086            
1 64832U 25151S   25344.18423125  .00003581  00000+0  49805-3 0  9996
2 64832  51.9024 333.8805 0010761 304.7868  55.2081 14.79960385 22082
KUIPER-00087            
1 64833U 25151T   25344.20299568  .00006428  00000+0  86965-3 0  9993
2 64833  51.9008 316.2916 0001008  15.9753 344.1241 14.80017172 22325
